{
  "norad_id": 67992,
  "name": "STARLINK-36950",
  "history": [
    {
      "epoch": "2026-03-28T07:15:58.851936",
      "apogee_km": 421.30236946238074,
      "perigee_km": 417.4767215225784,
      "latitude_deg": -42.84671825307079,
      "longitude_deg": -71.73460895987228,
      "semi_major_axis_km": 6797.526545492479,
      "eccentricity": 0.0002814,
      "inclination_deg": 42.9996,
      "raan_deg": 304.3842,
      "arg_perigee_deg": 322.3667,
      "mean_anomaly_deg": 37.6995,
      "mean_motion_rev_day": 15.49089084
    }
  ]
}